{
  "type": "FeatureCollection",
  "features": [
    {
      "type": "Feature",
      "properties": {
        "norad_id": 44334,
        "name": "EUTELSAT 7C",
        "group": "eutelsat",
        "lat": 0.05192041914439256,
        "lon": -57.020092762735466,
        "alt_km": 35780.736688224824,
        "timestamp": "2025-12-05T14:45:14.985016+00:00",
        "meta_object_name": "EUTELSAT 7C",
        "meta_object_id": "2019-034B",
        "meta_epoch": "2025-12-04T05:11:56.717088",
        "meta_mean_motion": 1.00269705,
        "meta_eccentricity": 0.000344,
        "meta_inclination": 0.0758,
        "meta_ra_of_asc_node": 179.6885,
        "meta_arg_of_pericenter": 56.5984,
        "meta_mean_anomaly": 281.9777,
        "meta_ephemeris_type": 0,
        "meta_classification_type": "U",
        "meta_norad_cat_id": 44334,
        "meta_element_set_no": 999,
        "meta_rev_at_epoch": 488,
        "meta_bstar": 0,
        "meta_mean_motion_dot": 6.4e-07,
        "meta_mean_motion_ddot": 0,
        "tle_line1": "1 44334U 19034B   25338.21662867  .00000064  00000+0  00000+0 0  9992",
        "tle_line2": "2 44334   0.0758 179.6885 0003440  56.5984 281.9777  1.00269705  4883"
      },
      "geometry": {
        "type": "Point",
        "coordinates": [
          -57.020092762735466,
          0.05192041914439256
        ]
      }
    },
    {
      "type": "Feature",
      "properties": {
        "norad_id": 44624,
        "name": "EUTELSAT 5 WEST B",
        "group": "eutelsat",
        "lat": -0.05999313883913026,
        "lon": -69.00665586246124,
        "alt_km": 35774.49805830867,
        "timestamp": "2025-12-05T14:45:14.985028+00:00",
        "meta_object_name": "EUTELSAT 5 WEST B",
        "meta_object_id": "2019-067A",
        "meta_epoch": "2025-12-04T13:42:12.244320",
        "meta_mean_motion": 1.00270033,
        "meta_eccentricity": 0.0003567,
        "meta_inclination": 0.0692,
        "meta_ra_of_asc_node": 330.6082,
        "meta_arg_of_pericenter": 283.2398,
        "meta_mean_anomaly": 20.3528,
        "meta_ephemeris_type": 0,
        "meta_classification_type": "U",
        "meta_norad_cat_id": 44624,
        "meta_element_set_no": 999,
        "meta_rev_at_epoch": 2248,
        "meta_bstar": 0,
        "meta_mean_motion_dot": -2.8e-07,
        "meta_mean_motion_ddot": 0,
        "tle_line1": "1 44624U 19067A   25338.57097505 -.00000028  00000+0  00000+0 0  9991",
        "tle_line2": "2 44624   0.0692 330.6082 0003567 283.2398  20.3528  1.00270033 22489"
      },
      "geometry": {
        "type": "Point",
        "coordinates": [
          -69.00665586246124,
          -0.05999313883913026
        ]
      }
    },
    {
      "type": "Feature",
      "properties": {
        "norad_id": 45027,
        "name": "EUTELSAT KONNECT",
        "group": "eutelsat",
        "lat": -0.04262052991506572,
        "lon": -56.822973377093064,
        "alt_km": 35780.39790415802,
        "timestamp": "2025-12-05T14:45:14.985045+00:00",
        "meta_object_name": "EUTELSAT KONNECT",
        "meta_object_id": "2020-005B",
        "meta_epoch": "2025-12-04T08:37:30.489888",
        "meta_mean_motion": 1.00272344,
        "meta_eccentricity": 0.0001642,
        "meta_inclination": 0.0692,
        "meta_ra_of_asc_node": 100.602,
        "meta_arg_of_pericenter": 164.0721,
        "meta_mean_anomaly": 305.3307,
        "meta_ephemeris_type": 0,
        "meta_classification_type": "U",
        "meta_norad_cat_id": 45027,
        "meta_element_set_no": 999,
        "meta_rev_at_epoch": 2237,
        "meta_bstar": 0,
        "meta_mean_motion_dot": 6.5e-07,
        "meta_mean_motion_ddot": 0,
        "tle_line1": "1 45027U 20005B   25338.35938067  .00000065  00000+0  00000+0 0  9996",
        "tle_line2": "2 45027   0.0692 100.6020 0001642 164.0721 305.3307  1.00272344 22378"
      },
      "geometry": {
        "type": "Point",
        "coordinates": [
          -56.822973377093064,
          -0.04262052991506572
        ]
      }
    },
    {
      "type": "Feature",
      "properties": {
        "norad_id": 49056,
        "name": "EUTELSAT QUANTUM",
        "group": "eutelsat",
        "lat": -0.01148833661820457,
        "lon": -16.291889312324933,
        "alt_km": 35783.31203091867,
        "timestamp": "2025-12-05T14:45:14.985057+00:00",
        "meta_object_name": "EUTELSAT QUANTUM",
        "meta_object_id": "2021-069B",
        "meta_epoch": "2025-12-04T13:57:10.807776",
        "meta_mean_motion": 1.00269477,
        "meta_eccentricity": 0.0003673,
        "meta_inclination": 0.0208,
        "meta_ra_of_asc_node": 24.1809,
        "meta_arg_of_pericenter": 241.8459,
        "meta_mean_anomaly": 64.6276,
        "meta_ephemeris_type": 0,
        "meta_classification_type": "U",
        "meta_norad_cat_id": 49056,
        "meta_element_set_no": 999,
        "meta_rev_at_epoch": 1597,
        "meta_bstar": 0,
        "meta_mean_motion_dot": 1.41e-06,
        "meta_mean_motion_ddot": 0,
        "tle_line1": "1 49056U 21069B   25338.58137509  .00000141  00000+0  00000+0 0  9995",
        "tle_line2": "2 49056   0.0208  24.1809 0003673 241.8459  64.6276  1.00269477 15971"
      },
      "geometry": {
        "type": "Point",
        "coordinates": [
          -16.291889312324933,
          -0.01148833661820457
        ]
      }
    },
    {
      "type": "Feature",
      "properties": {
        "norad_id": 53765,
        "name": "EUTELSAT KONNECT VHTS",
        "group": "eutelsat",
        "lat": -0.03201849496706311,
        "lon": -61.31774597511555,
        "alt_km": 35781.97636856175,
        "timestamp": "2025-12-05T14:45:14.985069+00:00",
        "meta_object_name": "EUTELSAT KONNECT VHTS",
        "meta_object_id": "2022-110A",
        "meta_epoch": "2025-12-04T13:44:12.050880",
        "meta_mean_motion": 1.00269123,
        "meta_eccentricity": 0.0002763,
        "meta_inclination": 0.0604,
        "meta_ra_of_asc_node": 108.2919,
        "meta_arg_of_pericenter": 124.354,
        "meta_mean_anomaly": 49.743,
        "meta_ephemeris_type": 0,
        "meta_classification_type": "U",
        "meta_norad_cat_id": 53765,
        "meta_element_set_no": 999,
        "meta_rev_at_epoch": 487,
        "meta_bstar": 0,
        "meta_mean_motion_dot": 3.1e-07,
        "meta_mean_motion_ddot": 0,
        "tle_line1": "1 53765U 22110A   25338.57236170  .00000031  00000+0  00000+0 0  9996",
        "tle_line2": "2 53765   0.0604 108.2919 0002763 124.3540  49.7430  1.00269123  4875"
      },
      "geometry": {
        "type": "Point",
        "coordinates": [
          -61.31774597511555,
          -0.03201849496706311
        ]
      }
    },
    {
      "type": "Feature",
      "properties": {
        "norad_id": 54048,
        "name": "EUTELSAT HOTBIRD 13F",
        "group": "eutelsat",
        "lat": 0.008483235695291087,
        "lon": -51.054123593489685,
        "alt_km": 35779.90309797431,
        "timestamp": "2025-12-05T14:45:14.985080+00:00",
        "meta_object_name": "EUTELSAT HOTBIRD 13F",
        "meta_object_id": "2022-134A",
        "meta_epoch": "2025-12-04T13:47:19.252032",
        "meta_mean_motion": 1.00270673,
        "meta_eccentricity": 0.0002145,
        "meta_inclination": 0.0509,
        "meta_ra_of_asc_node": 291.8865,
        "meta_arg_of_pericenter": 61.6816,
        "meta_mean_anomaly": 299.907,
        "meta_ephemeris_type": 0,
        "meta_classification_type": "U",
        "meta_norad_cat_id": 54048,
        "meta_element_set_no": 999,
        "meta_rev_at_epoch": 1142,
        "meta_bstar": 0,
        "meta_mean_motion_dot": 1.02e-06,
        "meta_mean_motion_ddot": 0,
        "tle_line1": "1 54048U 22134A   25338.57452838  .00000102  00000+0  00000+0 0  9997",
        "tle_line2": "2 54048   0.0509 291.8865 0002145  61.6816 299.9070  1.00270673 11426"
      },
      "geometry": {
        "type": "Point",
        "coordinates": [
          -51.054123593489685,
          0.008483235695291087
        ]
      }
    },
    {
      "type": "Feature",
      "properties": {
        "norad_id": 54225,
        "name": "EUTELSAT HOTBIRD 13G",
        "group": "eutelsat",
        "lat": 0.02803456793277939,
        "lon": -51.01400308111871,
        "alt_km": 35791.015920581165,
        "timestamp": "2025-12-05T14:45:14.985092+00:00",
        "meta_object_name": "EUTELSAT HOTBIRD 13G",
        "meta_object_id": "2022-146A",
        "meta_epoch": "2025-12-04T01:48:08.883648",
        "meta_mean_motion": 1.00271083,
        "meta_eccentricity": 0.0002144,
        "meta_inclination": 0.0481,
        "meta_ra_of_asc_node": 238.3515,
        "meta_arg_of_pericenter": 307.4733,
        "meta_mean_anomaly": 287.3658,
        "meta_ephemeris_type": 0,
        "meta_classification_type": "U",
        "meta_norad_cat_id": 54225,
        "meta_element_set_no": 999,
        "meta_rev_at_epoch": 551,
        "meta_bstar": 0,
        "meta_mean_motion_dot": 1.04e-06,
        "meta_mean_motion_ddot": 0,
        "tle_line1": "1 54225U 22146A   25338.07510282  .00000104  00000+0  00000+0 0  9992",
        "tle_line2": "2 54225   0.0481 238.3515 0002144 307.4733 287.3658  1.00271083  5510"
      },
      "geometry": {
        "type": "Point",
        "coordinates": [
          -51.01400308111871,
          0.02803456793277939
        ]
      }
    }
  ]
}